ANDESITE                
1 45726U 20037D   26068.46720933  .00004478  00000+0  31876-3 0  9992
2 45726  97.7890 260.5174 0009953 141.6473 218.5462 15.05115692310662
STARLINK-35266          
1 65804U 25218P   26068.53399426  .00004136  00000+0  29069-3 0  9996
2 65804  97.6023 292.7600 0002542  85.6067 274.5450 15.05652271 24943
