[{"OBJECT_NAME":"ANDESITE","OBJECT_ID":"2020-037D","EPOCH":"2026-03-09T11:12:46.886112","MEAN_MOTION":15.05115692,"ECCENTRICITY":0.00099538,"INCLINATION":97.789,"RA_OF_ASC_NODE":260.5174,"ARG_OF_PERICENTER":141.6473,"MEAN_ANOMALY":218.5462,"EPHEMERIS_TYPE":0,"CLASSIFICATION_TYPE":"U","NORAD_CAT_ID":45726,"ELEMENT_SET_NO":999,"REV_AT_EPOCH":31066,"BSTAR":0.00031876291,"MEAN_MOTION_DOT":4.478e-5,"MEAN_MOTION_DDOT":0},{"OBJECT_NAME":"STARLINK-35266","OBJECT_ID":"2025-218P","EPOCH":"2026-03-09T12:48:57.104064","MEAN_MOTION":15.05652271,"ECCENTRICITY":0.00025424,"INCLINATION":97.6023,"RA_OF_ASC_NODE":292.76,"ARG_OF_PERICENTER":85.6067,"MEAN_ANOMALY":274.545,"EPHEMERIS_TYPE":0,"CLASSIFICATION_TYPE":"U","NORAD_CAT_ID":65804,"ELEMENT_SET_NO":999,"REV_AT_EPOCH":2494,"BSTAR":0.00029068509,"MEAN_MOTION_DOT":4.136e-5,"MEAN_MOTION_DDOT":0}]
